{
  "norad_id": 61935,
  "name": "STARLINK-32500",
  "history": [
    {
      "epoch": "2026-03-28T14:37:14.663136Z",
      "apogee_km": 483.9067169546224,
      "perigee_km": 482.1173292893918,
      "latitude_deg": 8.711502241624864e-06,
      "longitude_deg": 133.17712463253145,
      "height_km": 482.5636733513077,
      "semi_major_axis_km": 6861.149023122007,
      "eccentricity": 0.0001304,
      "inclination_deg": 42.9973,
      "raan_deg": 178.5154,
      "arg_perigee_deg": 284.5431,
      "mean_anomaly_deg": 75.5276,
      "mean_motion_rev_day": 15.27592381
    }
  ]
}